NORAD_CAT_ID,OBJECT_NAME,OBJECT_TYPE,EPOCH,MEAN_MOTION,ECCENTRICITY,INCLINATION,RA_OF_ASC_NODE,ARG_OF_PERICENTER,MEAN_ANOMALY,BSTAR,MEAN_MOTION_DOT,MEAN_MOTION_DDOT,TLE_LINE0,TLE_LINE1,TLE_LINE2,SEMIMAJOR_AXIS,PERIOD,APOGEE,PERIGEE,DECAYED
52003.0,STARLINK-3654,PAYLOAD,2024-06-07 21:05:32,15.08878831,5.09e-05,53.2177,11.388,93.4796,266.6254,0.0004082,6.222e-05,0.0,0 STARLINK-3654,1 52003U 22025AZ  24159.87884634  .00006222  00000-0  40820-3 0  9999,2 52003  53.2177  11.3880 0000509  93.4796 266.6254 15.08878831125840,6917.762,95.435,539.979,539.275,0.0
52003.0,STARLINK-3654,PAYLOAD,2024-06-08 14:34:50,15.08822868,0.0001034,53.2192,8.1175,79.9164,280.1944,-0.0001275,-2.315e-05,0.0,0 STARLINK-3654,1 52003U 22025AZ  24160.60753067 -.00002315  00000-0 -12750-3 0  9999,2 52003  53.2192   8.1175 0001034  79.9164 280.1944 15.08822868124441,6917.933,95.439,540.513,539.082,0.0
52003.0,STARLINK-3654,PAYLOAD,2024-06-08 20:56:22,15.0883689,0.0001237,53.2216,6.9285,71.6322,288.4805,1.0091e-05,-1.27e-06,0.0,0 STARLINK-3654,1 52003U 22025AZ  24160.87248679 -.00000127  00000-0  10091-4 0  9991,2 52003  53.2216   6.9285 0001237  71.6322 288.4805 15.08836890125994,6917.89,95.438,540.611,538.899,0.0
52003.0,STARLINK-3654,PAYLOAD,2024-06-09 00:07:09,15.08837497,0.0001751,53.218,6.3346,90.2226,269.8966,4.1982e-06,-2.21e-06,0.0,0 STARLINK-3654,1 52003U 22025AZ  24161.00496678 -.00000221  00000-0  41982-5 0  9990,2 52003  53.2180   6.3346 0001751  90.2226 269.8966 15.08837497124508,6917.888,95.438,540.964,538.542,0.0
52003.0,STARLINK-3654,PAYLOAD,2024-06-09 20:47:09,15.0884993,5.82e-05,53.2166,2.4696,69.4994,290.606,-0.00018251,-3.192e-05,0.0,0 STARLINK-3654,1 52003U 22025AZ  24161.86608774 -.00003192  00000-0 -18251-3 0  9998,2 52003  53.2166   2.4696 0000582  69.4994 290.6060 15.08849930124634,6917.85,95.437,540.118,539.312,0.0
52003.0,STARLINK-3654,PAYLOAD,2024-06-10 06:19:28,15.08854107,8.55e-05,53.2159,0.6853,73.048,287.0606,-6.5386e-05,-1.329e-05,0.0,0 STARLINK-3654,1 52003U 22025AZ  24162.26351917 -.00001329  00000-0 -65386-4 0  9999,2 52003  53.2159   0.6853 0000855  73.0480 287.0606 15.08854107126208,6917.837,95.437,540.294,539.111,0.0
52003.0,STARLINK-3654,PAYLOAD,2024-06-10 20:37:56,15.08838023,0.000113,53.2189,358.0079,60.0374,300.073,6.14e-05,6.89e-06,0.0,0 STARLINK-3654,1 52003U 22025AZ  24162.85968656  .00000689  00000-0  61400-4 0  9997,2 52003  53.2189 358.0079 0001130  60.0374 300.0730 15.08838023126298,6917.886,95.438,540.533,538.97,0.0
52003.0,STARLINK-3654,PAYLOAD,2024-06-10 22:13:20,15.0883875,0.0001139,53.219,357.7105,59.8712,300.2393,6.6024e-05,7.63e-06,0.0,0 STARLINK-3654,1 52003U 22025AZ  24162.92592606  .00000763  00000-0  66024-4 0  9993,2 52003  53.2190 357.7105 0001139  59.8712 300.2393 15.08838750124794,6917.884,95.438,540.537,538.961,0.0
52003.0,STARLINK-3654,PAYLOAD,2024-06-11 06:10:15,15.08846973,0.0001528,53.2189,356.2255,82.5184,277.5982,0.00014909,2.086e-05,0.0,0 STARLINK-3654,1 52003U 22025AZ  24163.25711924  .00002086  00000-0  14909-3 0  9990,2 52003  53.2189 356.2255 0001528  82.5184 277.5982 15.08846973124842,6917.859,95.437,540.781,538.667,0.0
52003.0,STARLINK-3654,PAYLOAD,2024-06-12 06:01:02,15.08849488,0.0001498,53.2178,351.7621,85.841,274.2754,7.7937e-05,9.53e-06,0.0,0 STARLINK-3654,1 52003U 22025AZ  24164.25071824  .00000953  00000-0  77937-4 0  9991,2 52003  53.2178 351.7621 0001498  85.8410 274.2754 15.08849488124992,6917.851,95.437,540.753,538.68,0.0
52003.0,STARLINK-3654,PAYLOAD,2024-06-12 12:22:36,15.0882352,0.0001435,53.2186,350.5762,82.5154,277.6001,-5.0702e-05,-1.094e-05,0.0,0 STARLINK-3654,1 52003U 22025AZ  24164.51569835 -.00001094  00000-0 -50702-4 0  9994,2 52003  53.2186 350.5762 0001435  82.5154 277.6001 15.08823520126548,6917.931,95.439,540.788,538.803,0.0
52003.0,STARLINK-3654,PAYLOAD,2024-06-12 18:44:08,15.08830092,0.0001423,53.2178,349.3867,85.3936,274.7219,8.6143e-06,-1.51e-06,0.0,0 STARLINK-3654,1 52003U 22025AZ  24164.78065396 -.00000151  00000-0  86143-5 0  9997,2 52003  53.2178 349.3867 0001423  85.3936 274.7219 15.08830092126582,6917.911,95.438,540.76,538.791,0.0
52003.0,STARLINK-3654,PAYLOAD,2024-06-13 12:13:22,15.0883718,0.0001385,53.2175,346.1136,93.6107,266.5044,7.3287e-05,8.79e-06,0.0,0 STARLINK-3654,1 52003U 22025AZ  24165.50928655  .00000879  00000-0  73287-4 0  9994,2 52003  53.2175 346.1136 0001385  93.6107 266.5044 15.08837180126694,6917.889,95.438,540.712,538.796,0.0
52003.0,STARLINK-3654,PAYLOAD,2024-06-13 18:34:54,15.08843415,0.0001372,53.2181,344.9255,89.0616,271.0534,7.3524e-06,-1.71e-06,0.0,0 STARLINK-3654,1 52003U 22025AZ  24165.77424614 -.00000171  00000-0  73524-5 0  9990,2 52003  53.2181 344.9255 0001372  89.0616 271.0534 15.08843415125220,6917.87,95.437,540.684,538.786,0.0
52003.0,STARLINK-3654,PAYLOAD,2024-06-14 12:04:09,15.08834961,0.0001468,53.2179,341.6547,87.7971,272.3189,0.0001385,1.917e-05,0.0,0 STARLINK-3654,1 52003U 22025AZ  24166.50288764  .00001917  00000-0  13850-3 0  9998,2 52003  53.2179 341.6547 0001468  87.7971 272.3189 15.08834961125338,6917.896,95.438,540.776,538.745,0.0
52003.0,STARLINK-3654,PAYLOAD,2024-06-14 21:36:28,15.08837205,0.0001436,53.2192,339.8685,95.111,265.0046,6.1801e-05,6.96e-06,0.0,0 STARLINK-3654,1 52003U 22025AZ  24166.90032961  .00000696  00000-0  61801-4 0  9991,2 52003  53.2192 339.8685 0001436  95.1110 265.0046 15.08837205125399,6917.889,95.438,540.747,538.761,0.0
52003.0,STARLINK-3654,PAYLOAD,2024-06-15 11:54:56,15.08840486,0.0001296,53.2182,337.1924,95.8134,264.3006,3.0753e-05,2.02e-06,0.0,0 STARLINK-3654,1 52003U 22025AZ  24167.49648925  .00000202  00000-0  30753-4 0  9994,2 52003  53.2182 337.1924 0001296  95.8134 264.3006 15.08840486125485,6917.879,95.438,540.64,538.847,0.0
52003.0,STARLINK-3654,PAYLOAD,2024-06-15 18:16:29,15.0883952,0.0001341,53.2181,336.0055,98.3283,261.7861,7.94e-05,9.76e-06,0.0,0 STARLINK-3654,1 52003U 22025AZ  24167.76144825  .00000976  00000-0  79400-4 0  9994,2 52003  53.2181 336.0055 0001341  98.3283 261.7861 15.08839520125523,6917.882,95.438,540.675,538.819,0.0
52003.0,STARLINK-3654,PAYLOAD,2024-06-16 03:48:47,15.08852417,0.0001337,53.2184,334.221,107.6325,252.4813,9.2146e-05,1.179e-05,0.0,0 STARLINK-3654,1 52003U 22025AZ  24168.15887750  .00001179  00000-0  92146-4 0  9997,2 52003  53.2184 334.2210 0001337 107.6325 252.4813 15.08852417125585,6917.842,95.437,540.632,538.783,0.0
52003.0,STARLINK-3654,PAYLOAD,2024-06-16 21:18:03,15.08832869,0.000135,53.2178,330.9496,101.6477,258.4667,2.008e-05,3.2e-07,0.0,0 STARLINK-3654,1 52003U 22025AZ  24168.88753537  .00000032  00000-0  20080-4 0  9997,2 52003  53.2178 330.9496 0001350 101.6477 258.4667 15.08832869125698,6917.902,95.438,540.701,538.833,0.0
52003.0,STARLINK-3654,PAYLOAD,2024-06-17 19:33:26,15.08837151,0.0001472,53.2183,326.7878,107.2897,252.8256,4.7195e-05,4.63e-06,0.0,0 STARLINK-3654,1 52003U 22025AZ  24169.81489455  .00000463  00000-0  47195-4 0  9990,2 52003  53.2183 326.7878 0001472 107.2897 252.8256 15.08837151127349,6917.889,95.438,540.772,538.736,0.0
52003.0,STARLINK-3654,PAYLOAD,2024-06-18 03:30:21,15.088516,0.000122,53.2174,325.298,84.2797,275.8334,7.7862e-05,9.52e-06,0.0,0 STARLINK-3654,1 52003U 22025AZ  24170.14608412  .00000952  00000-0  77862-4 0  9991,2 52003  53.2174 325.2980 0001220  84.2797 275.8334 15.08851600127393,6917.845,95.437,540.554,538.866,0.0
52003.0,STARLINK-3654,PAYLOAD,2024-06-18 14:38:04,15.08829571,0.0001313,53.2177,323.22,98.6105,261.5036,0.00011242,1.501e-05,0.0,0 STARLINK-3654,1 52003U 22025AZ  24170.60977881  .00001501  00000-0  11242-3 0  9991,2 52003  53.2177 323.2200 0001313  98.6105 261.5036 15.08829571125957,6917.912,95.438,540.686,538.869,0.0
52003.0,STARLINK-3654,PAYLOAD,2024-06-18 17:48:50,15.0883746,0.0001311,53.2181,322.6227,89.4122,270.702,7.1174e-05,8.45e-06,0.0,0 STARLINK-3654,1 52003U 22025AZ  24170.74225525  .00000845  00000-0  71174-4 0  9998,2 52003  53.2181 322.6227 0001311  89.4122 270.7020 15.08837460127480,6917.888,95.438,540.66,538.846,0.0
52003.0,STARLINK-3654,PAYLOAD,2024-06-19 03:21:08,15.08856023,0.0001408,53.2197,320.8344,77.7015,282.4135,1.7806e-05,-4e-08,0.0,0 STARLINK-3654,1 52003U 22025AZ  24171.13968369 -.00000004  00000-0  17806-4 0  9992,2 52003  53.2197 320.8344 0001408  77.7015 282.4135 15.08856023127545,6917.831,95.437,540.67,538.722,0.0
52003.0,STARLINK-3654,PAYLOAD,2024-06-19 14:28:51,15.08845938,0.0002267,53.2196,318.7522,85.4079,274.7172,7.8558e-07,-2.76e-06,0.0,0 STARLINK-3654,1 52003U 22025AZ  24171.60337503 -.00000276  00000-0  78558-6 0  9998,2 52003  53.2196 318.7522 0002267  85.4079 274.7172 15.08845938126107,6917.862,95.437,541.296,538.159,0.0
52003.0,STARLINK-3654,PAYLOAD,2024-06-19 19:15:01,15.08842422,0.0001661,53.2179,317.8607,87.517,272.6012,-2.5112e-05,-6.88e-06,0.0,0 STARLINK-3654,1 52003U 22025AZ  24171.80209602 -.00000688  00000-0 -25112-4 0  9992,2 52003  53.2179 317.8607 0001661  87.5170 272.6012 15.08842422127649,6917.873,95.437,540.887,538.589,0.0
52003.0,STARLINK-3654,PAYLOAD,2024-06-20 14:19:38,15.0883817,0.0001659,53.2202,314.2958,93.836,266.2822,6.1881e-05,6.97e-06,0.0,0 STARLINK-3654,1 52003U 22025AZ  24172.59697588  .00000697  00000-0  61881-4 0  9994,2 52003  53.2202 314.2958 0001659  93.8360 266.2822 15.08838170126253,6917.886,95.438,540.899,538.603,0.0
52003.0,STARLINK-3654,PAYLOAD,2024-06-20 15:55:01,15.08839445,0.0001611,53.2201,313.9995,84.0459,276.0716,1.8994e-05,1.4e-07,0.0,0 STARLINK-3654,1 52003U 22025AZ  24172.66321717  .00000014  00000-0  18994-4 0  9990,2 52003  53.2201 313.9995 0001611  84.0459 276.0716 15.08839445126266,6917.882,95.438,540.862,538.633,0.0
52003.0,STARLINK-3654,PAYLOAD,2024-06-21 12:35:02,15.08836227,0.0001304,53.219,310.1329,100.122,259.992,0.00010186,1.333e-05,0.0,0 STARLINK-3654,1 52003U 22025AZ  24173.52433530  .00001333  00000-0  10186-3 0  9992,2 52003  53.2190 310.1329 0001304 100.1220 259.9920 15.08836227127902,6917.892,95.438,540.659,538.855,0.0
